{"type": "FeatureCollection", "features": [ {"type": "Feature", "properties": {"norad_id": 34529, "name": "IRIDIUM 33 DEB", "group": "iridium-33-debris", "lat": 64.37155553587692, "lon": 38.48158354924299, "alt_km": 749.5916473620673, "timestamp": "2025-12-23T09:49:07.468137+00:00", "meta": {"OBJECT_NAME": "IRIDIUM 33 DEB", "OBJECT_ID": "1997-051HW", "EPOCH": "2025-12-22T11:50:55.230720", "MEAN_MOTION": 14.4062334, "ECCENTRICITY": 0.00059058, "INCLINATION": 86.3633, "RA_OF_ASC_NODE": 31.2535, "ARG_OF_PERICENTER": 148.7666, "MEAN_ANOMALY": 211.3885, "EPHEMERIS_TYPE": 0, "CLASSIFICATION_TYPE": "U", "NORAD_CAT_ID": 34529, "ELEMENT_SET_NO": 999, "REV_AT_EPOCH": 88282, "BSTAR": 0.00011217968, "MEAN_MOTION_DOT": 3.78e-06, "MEAN_MOTION_DDOT": 0}, "tle": {"line1": "1 34529U 97051HW  25356.49369480  .00000378  00000+0  11218-3 0  9992", "line2": "2 34529  86.3633  31.2535 0005905 148.7666 211.3885 14.40623340882823"}}, "geometry": {"type": "Point", "coordinates": [38.48158354924299, 64.37155553587692]}}, {"type": "Feature", "properties": {"norad_id": 34538, "name": "IRIDIUM 33 DEB", "group": "iridium-33-debris", "lat": -18.995879217100228, "lon": -0.4026775859778119, "alt_km": 739.9557859433462, "timestamp": "2025-12-23T09:49:07.468148+00:00", "meta": {"OBJECT_NAME": "IRIDIUM 33 DEB", "OBJECT_ID": "1997-051JF", "EPOCH": "2025-12-22T06:12:04.821696", "MEAN_MOTION": 14.42700609, "ECCENTRICITY": 0.00320413, "INCLINATION": 86.2762, "RA_OF_ASC_NODE": 1.3859, "ARG_OF_PERICENTER": 295.0641, "MEAN_ANOMALY": 192.9769, "EPHEMERIS_TYPE": 0, "CLASSIFICATION_TYPE": "U", "NORAD_CAT_ID": 34538, "ELEMENT_SET_NO": 999, "REV_AT_EPOCH": 87893, "BSTAR": 0.00089518329, "MEAN_MOTION_DOT": 3.015e-05, "MEAN_MOTION_DDOT": 0}, "tle": {"line1": "1 34538U 97051JF  25356.25838914  .00003015  00000+0  89518-3 0  9998", "line2": "2 34538  86.2762   1.3859 0032041 295.0641 192.9769 14.42700609878930"}}, "geometry": {"type": "Point", "coordinates": [-0.4026775859778119, -18.995879217100228]}}, {"type": "Feature", "properties": {"norad_id": 34540, "name": "IRIDIUM 33 DEB", "group": "iridium-33-debris", "lat": -35.131939414565636, "lon": 125.32958308490363, "alt_km": 650.2229785985191, "timestamp": "2025-12-23T09:49:07.468158+00:00", "meta": {"OBJECT_NAME": "IRIDIUM 33 DEB", "OBJECT_ID": "1997-051JH", "EPOCH": "2025-12-22T19:58:08.744160", "MEAN_MOTION": 14.75512106, "ECCENTRICITY": 0.00179406, "INCLINATION": 86.3119, "RA_OF_ASC_NODE": 302.992, "ARG_OF_PERICENTER": 125.3836, "MEAN_ANOMALY": 266.2203, "EPHEMERIS_TYPE": 0, "CLASSIFICATION_TYPE": "U", "NORAD_CAT_ID": 34540, "ELEMENT_SET_NO": 999, "REV_AT_EPOCH": 89170, "BSTAR": 0.0015814186, "MEAN_MOTION_DOT": 0.00010821, "MEAN_MOTION_DDOT": 0}, "tle": {"line1": "1 34540U 97051JH  25356.83204565  .00010821  00000+0  15814-2 0  9994", "line2": "2 34540  86.3119 302.9920 0017940 125.3836 266.2203 14.75512106891708"}}, "geometry": {"type": "Point", "coordinates": [125.32958308490363, -35.131939414565636]}}, {"type": "Feature", "properties": {"norad_id": 34648, "name": "IRIDIUM 33 DEB", "group": "iridium-33-debris", "lat": 75.49247746572861, "lon": -68.24438194834582, "alt_km": 974.4234889365571, "timestamp": "2025-12-23T09:49:07.468168+00:00", "meta": {"OBJECT_NAME": "IRIDIUM 33 DEB", "OBJECT_ID": "1997-051JZ", "EPOCH": "2025-12-21T18:19:39.887904", "MEAN_MOTION": 14.11736102, "ECCENTRICITY": 0.01798232, "INCLINATION": 86.3908, "RA_OF_ASC_NODE": 278.3021, "ARG_OF_PERICENTER": 270.6006, "MEAN_ANOMALY": 87.4576, "EPHEMERIS_TYPE": 0, "CLASSIFICATION_TYPE": "U", "NORAD_CAT_ID": 34648, "ELEMENT_SET_NO": 999, "REV_AT_EPOCH": 85088, "BSTAR": 0.0054657739, "MEAN_MOTION_DOT": 0.00011615, "MEAN_MOTION_DDOT": 0}, "tle": {"line1": "1 34648U 97051JZ  25355.76365611  .00011615  00000+0  54658-2 0  9995", "line2": "2 34648  86.3908 278.3021 0179823 270.6006  87.4576 14.11736102850887"}}, "geometry": {"type": "Point", "coordinates": [-68.24438194834582, 75.49247746572861]}}, {"type": "Feature", "properties": {"norad_id": 34651, "name": "IRIDIUM 33 DEB", "group": "iridium-33-debris", "lat": -39.32404925025103, "lon": 132.98522018213134, "alt_km": 900.4849817097765, "timestamp": "2025-12-23T09:49:07.468178+00:00", "meta": {"OBJECT_NAME": "IRIDIUM 33 DEB", "OBJECT_ID": "1997-051KC", "EPOCH": "2025-12-19T16:44:48.420096", "MEAN_MOTION": 14.25922062, "ECCENTRICITY": 0.01422464, "INCLINATION": 86.2827, "RA_OF_ASC_NODE": 137.6175, "ARG_OF_PERICENTER": 181.9677, "MEAN_ANOMALY": 178.0974, "EPHEMERIS_TYPE": 0, "CLASSIFICATION_TYPE": "U", "NORAD_CAT_ID": 34651, "ELEMENT_SET_NO": 999, "REV_AT_EPOCH": 85995, "BSTAR": 0.0022061693, "MEAN_MOTION_DOT": 5.865e-05, "MEAN_MOTION_DDOT": 0}, "tle": {"line1": "1 34651U 97051KC  25353.69778264  .00005865  00000+0  22062-2 0  9995", "line2": "2 34651  86.2827 137.6175 0142246 181.9677 178.0974 14.25922062859957"}}, "geometry": {"type": "Point", "coordinates": [132.98522018213134, -39.32404925025103]}}, {"type": "Feature", "properties": {"norad_id": 34652, "name": "IRIDIUM 33 DEB", "group": "iridium-33-debris", "lat": -40.1692372694841, "lon": -27.854324459649916, "alt_km": 684.0061051883149, "timestamp": "2025-12-23T09:49:07.468189+00:00", "meta": {"OBJECT_NAME": "IRIDIUM 33 DEB", "OBJECT_ID": "1997-051KD", "EPOCH": "2025-12-22T22:37:56.808768", "MEAN_MOTION": 14.62145244, "ECCENTRICITY": 0.00254496, "INCLINATION": 86.3316, "RA_OF_ASC_NODE": 335.4576, "ARG_OF_PERICENTER": 260.7991, "MEAN_ANOMALY": 126.9649, "EPHEMERIS_TYPE": 0, "CLASSIFICATION_TYPE": "U", "NORAD_CAT_ID": 34652, "ELEMENT_SET_NO": 999, "REV_AT_EPOCH": 88633, "BSTAR": 0.00098275366, "MEAN_MOTION_DOT": 4.986e-05, "MEAN_MOTION_DDOT": 0}, "tle": {"line1": "1 34652U 97051KD  25356.94301862  .00004986  00000+0  98275-3 0  9996", "line2": "2 34652  86.3316 335.4576 0025449 260.7991 126.9649 14.62145244886338"}}, "geometry": {"type": "Point", "coordinates": [-27.854324459649916, -40.1692372694841]}}, {"type": "Feature", "properties": {"norad_id": 34690, "name": "IRIDIUM 33 DEB", "group": "iridium-33-debris", "lat": -84.4740867588028, "lon": -8.55481340234899, "alt_km": 715.1603684703541, "timestamp": "2025-12-23T09:49:07.468199+00:00", "meta": {"OBJECT_NAME": "IRIDIUM 33 DEB", "OBJECT_ID": "1997-051KM", "EPOCH": "2025-12-22T08:23:45.204864", "MEAN_MOTION": 14.55129058, "ECCENTRICITY": 0.00097229, "INCLINATION": 86.3773, "RA_OF_ASC_NODE": 32.8141, "ARG_OF_PERICENTER": 357.524, "MEAN_ANOMALY": 131.3072, "EPHEMERIS_TYPE": 0, "CLASSIFICATION_TYPE": "U", "NORAD_CAT_ID": 34690, "ELEMENT_SET_NO": 999, "REV_AT_EPOCH": 88234, "BSTAR": 0.00039013292, "MEAN_MOTION_DOT": 1.706e-05, "MEAN_MOTION_DDOT": 0}, "tle": {"line1": "1 34690U 97051KM  25356.34982876  .00001706  00000+0  39013-3 0  9994", "line2": "2 34690  86.3773  32.8141 0009722 357.5240 131.3072 14.55129058882345"}}, "geometry": {"type": "Point", "coordinates": [-8.55481340234899, -84.4740867588028]}}, {"type": "Feature", "properties": {"norad_id": 34693, "name": "IRIDIUM 33 DEB", "group": "iridium-33-debris", "lat": -76.15401463341605, "lon": -76.68647284378899, "alt_km": 484.30837389802036, "timestamp": "2025-12-23T09:49:07.468209+00:00", "meta": {"OBJECT_NAME": "IRIDIUM 33 DEB", "OBJECT_ID": "1997-051KQ", "EPOCH": "2025-12-22T20:17:31.585344", "MEAN_MOTION": 15.30307063, "ECCENTRICITY": 0.00107384, "INCLINATION": 86.305, "RA_OF_ASC_NODE": 298.795, "ARG_OF_PERICENTER": 34.9952, "MEAN_ANOMALY": 25.5059, "EPHEMERIS_TYPE": 0, "CLASSIFICATION_TYPE": "U", "NORAD_CAT_ID": 34693, "ELEMENT_SET_NO": 999, "REV_AT_EPOCH": 89069, "BSTAR": 0.0045109095, "MEAN_MOTION_DOT": 0.00134541, "MEAN_MOTION_DDOT": 0}, "tle": {"line1": "1 34693U 97051KQ  25356.84550446  .00134541  00000+0  45109-2 0  9992", "line2": "2 34693  86.3050 298.7950 0010738  34.9952  25.5059 15.30307063890696"}}, "geometry": {"type": "Point", "coordinates": [-76.68647284378899, -76.15401463341605]}}, {"type": "Feature", "properties": {"norad_id": 34696, "name": "IRIDIUM 33 DEB", "group": "iridium-33-debris", "lat": 83.5683651645178, "lon": 58.87288155919892, "alt_km": 631.8061924241383, "timestamp": "2025-12-23T09:49:07.468219+00:00", "meta": {"OBJECT_NAME": "IRIDIUM 33 DEB", "OBJECT_ID": "1997-051KT", "EPOCH": "2025-12-22T12:49:05.985120", "MEAN_MOTION": 14.65530105, "ECCENTRICITY": 0.00739958, "INCLINATION": 86.183, "RA_OF_ASC_NODE": 22.9637, "ARG_OF_PERICENTER": 134.5199, "MEAN_ANOMALY": 17.3354, "EPHEMERIS_TYPE": 0, "CLASSIFICATION_TYPE": "U", "NORAD_CAT_ID": 34696, "ELEMENT_SET_NO": 999, "REV_AT_EPOCH": 86816, "BSTAR": 0.0048858102, "MEAN_MOTION_DOT": 0.00027681, "MEAN_MOTION_DDOT": 0}, "tle": {"line1": "1 34696U 97051KT  25356.53409705  .00027681  00000+0  48858-2 0  9992", "line2": "2 34696  86.1830  22.9637 0073995 134.5199  17.3354 14.65530105868162"}}, "geometry": {"type": "Point", "coordinates": [58.87288155919892, 83.5683651645178]}}, {"type": "Feature", "properties": {"norad_id": 34765, "name": "IRIDIUM 33 DEB", "group": "iridium-33-debris", "lat": 77.92876688886594, "lon": -169.2415600085635, "alt_km": 746.3594445283225, "timestamp": "2025-12-23T09:49:07.468229+00:00", "meta": {"OBJECT_NAME": "IRIDIUM 33 DEB", "OBJECT_ID": "1997-051LJ", "EPOCH": "2025-12-21T13:03:17.424288", "MEAN_MOTION": 14.40485449, "ECCENTRICITY": 0.0016466, "INCLINATION": 86.3382, "RA_OF_ASC_NODE": 28.9833, "ARG_OF_PERICENTER": 181.3076, "MEAN_ANOMALY": 334.2319, "EPHEMERIS_TYPE": 0, "CLASSIFICATION_TYPE": "U", "NORAD_CAT_ID": 34765, "ELEMENT_SET_NO": 999, "REV_AT_EPOCH": 87740, "BSTAR": 0.00029938, "MEAN_MOTION_DOT": 9.73e-06, "MEAN_MOTION_DDOT": 0}, "tle": {"line1": "1 34765U 97051LJ  25355.54395167  .00000973  00000+0  29938-3 0  9999", "line2": "2 34765  86.3382  28.9833 0016466 181.3076 334.2319 14.40485449877403"}}, "geometry": {"type": "Point", "coordinates": [-169.2415600085635, 77.92876688886594]}}]}